IRIDIUM 36 [-]          
1 24967U 97056C   23315.84050843  .00000835  00000+0  27808-3 0  9994
2 24967  86.3986  57.9091 0002240  94.0989 266.0464 14.36504741368446
IRIDIUM 39 [-]          
1 25042U 97069D   23315.87351986  .00001196  00000+0  31948-3 0  9999
2 25042  86.3886 100.9691 0020489  92.4664 267.8885 14.47488501364531
IRIDIUM 38 [-]          
1 25043U 97069E   23315.98683524  .00000721  00000+0  23682-3 0  9997
2 25043  86.3926 118.3493 0001500 159.0464 201.0795 14.36958806362436
IRIDIUM 42 [-]          
1 25077U 97077A   23315.99087783  .00000648  00000+0  21952-3 0  9995
2 25077  86.3933 123.8075 0001684 104.9692 255.1691 14.35267553357512
IRIDIUM 44 [-]          
1 25078U 97077B   23315.90437112  .00000779  00000+0  24580-3 0  9997
2 25078  86.3922 107.3307 0003515 116.4495 243.7065 14.39065744359781
IRIDIUM 45 [-]          
1 25104U 97082A   23316.10374256  .00013193  00000+0  84333-3 0  9991
2 25104  86.3733 324.1067 0174922 309.5434  49.0447 14.96648232364422
IRIDIUM 24 [-]          
1 25105U 97082B   23315.77453056  .00000884  00000+0  26984-3 0  9991
2 25105  86.3892 327.3621 0010852 192.9474 167.1449 14.40824926359174
IRIDIUM 51 [-]          
1 25262U 98018A   23315.81189079  .00014689  00000+0  80692-3 0  9995
2 25262  86.3924 334.6960 0160189 263.3733  94.9247 15.03580134358522
